[{"OBJECT_NAME":"STARLINK-5669","OBJECT_ID":"2023-015L","EPOCH":"2026-03-09T02:23:02.427360","MEAN_MOTION":15.02545944,"ECCENTRICITY":0.00031033,"INCLINATION":43.0077,"RA_OF_ASC_NODE":329.3286,"ARG_OF_PERICENTER":268.211,"MEAN_ANOMALY":91.8377,"EPHEMERIS_TYPE":0,"CLASSIFICATION_TYPE":"U","NORAD_CAT_ID":55459,"ELEMENT_SET_NO":999,"REV_AT_EPOCH":17066,"BSTAR":0.00011853457,"MEAN_MOTION_DOT":1.398e-5,"MEAN_MOTION_DDOT":0},{"OBJECT_NAME":"ELECTRON KICK STAGE R\/B","OBJECT_ID":"2025-229C","EPOCH":"2026-03-09T11:01:34.584384","MEAN_MOTION":15.04670102,"ECCENTRICITY":0.00392514,"INCLINATION":41.9818,"RA_OF_ASC_NODE":119.4948,"ARG_OF_PERICENTER":118.9737,"MEAN_ANOMALY":241.5033,"EPHEMERIS_TYPE":0,"CLASSIFICATION_TYPE":"U","NORAD_CAT_ID":65973,"ELEMENT_SET_NO":999,"REV_AT_EPOCH":2194,"BSTAR":0.00045211532,"MEAN_MOTION_DOT":6.384e-5,"MEAN_MOTION_DDOT":0}]
